{
  "norad_id": 49287,
  "name": "ONEWEB-0361",
  "history": [
    {
      "epoch": "2026-03-28T20:19:10.836480Z",
      "apogee_km": 1182.9399987630386,
      "perigee_km": 1180.61381325416,
      "latitude_deg": -4.2448438601858945e-05,
      "longitude_deg": 159.42371108335476,
      "height_km": 1184.7271289894052,
      "semi_major_axis_km": 7559.913906008599,
      "eccentricity": 0.00015385,
      "inclination_deg": 87.9148,
      "raan_deg": 290.4801,
      "arg_perigee_deg": 92.4455,
      "mean_anomaly_deg": 267.6854,
      "mean_motion_rev_day": 13.20770887
    },
    {
      "epoch": "2026-03-29T01:46:27.038784Z",
      "apogee_km": 1182.9450993910878,
      "perigee_km": 1180.610597685859,
      "latitude_deg": -9.664806196797646e-07,
      "longitude_deg": 77.33679458234039,
      "height_km": 1184.7345966086937,
      "semi_major_axis_km": 7559.914848538473,
      "eccentricity": 0.0001544,
      "inclination_deg": 87.9148,
      "raan_deg": 290.4347,
      "arg_perigee_deg": 92.7581,
      "mean_anomaly_deg": 267.3729,
      "mean_motion_rev_day": 13.2077064
    },
    {
      "epoch": "2026-03-30T01:24:37.096416Z",
      "apogee_km": 1182.9495275022,
      "perigee_km": 1180.6033839603479,
      "latitude_deg": 2.062550405286151e-05,
      "longitude_deg": 81.62738785456195,
      "height_km": 1184.7457399354114,
      "semi_major_axis_km": 7559.913455731274,
      "eccentricity": 0.00015517,
      "inclination_deg": 87.9147,
      "raan_deg": 290.2379,
      "arg_perigee_deg": 93.3582,
      "mean_anomaly_deg": 266.7729,
      "mean_motion_rev_day": 13.20771005
    },
    {
      "epoch": "2026-03-30T12:19:09.451776Z",
      "apogee_km": 1182.9526345378454,
      "perigee_km": 1180.6010477384207,
      "latitude_deg": -1.7662501173990476e-05,
      "longitude_deg": -82.54634320840243,
      "height_km": 1184.7497498142059,
      "semi_major_axis_km": 7559.913841138133,
      "eccentricity": 0.00015553,
      "inclination_deg": 87.9145,
      "raan_deg": 290.147,
      "arg_perigee_deg": 93.5274,
      "mean_anomaly_deg": 266.6037,
      "mean_motion_rev_day": 13.20770904
    },
    {
      "epoch": "2026-03-30T19:35:30.992352Z",
      "apogee_km": 1182.9526675864,
      "perigee_km": 1180.6000225534135,
      "latitude_deg": -2.1551267407844827e-05,
      "longitude_deg": 168.00472747188206,
      "height_km": 1184.753704870531,
      "semi_major_axis_km": 7559.913345069906,
      "eccentricity": 0.0001556,
      "inclination_deg": 87.9145,
      "raan_deg": 290.0865,
      "arg_perigee_deg": 93.743,
      "mean_anomaly_deg": 266.3881,
      "mean_motion_rev_day": 13.20771034
    },
    {
      "epoch": "2026-03-31T11:57:19.452384Z",
      "apogee_km": 1182.9433447758083,
      "perigee_km": 1180.6043083660688,
      "latitude_deg": -1.7229293981987704e-05,
      "longitude_deg": -78.25541172883933,
      "height_km": 1184.7521976680255,
      "semi_major_axis_km": 7559.910826570938,
      "eccentricity": 0.0001547,
      "inclination_deg": 87.9144,
      "raan_deg": 289.9503,
      "arg_perigee_deg": 93.8137,
      "mean_anomaly_deg": 266.3173,
      "mean_motion_rev_day": 13.20771694
    },
    {
      "epoch": "2026-04-01T18:51:51.052320Z",
      "apogee_km": 1182.9495711075378,
      "perigee_km": 1180.6029740277318,
      "latitude_deg": 4.310515124166054e-05,
      "longitude_deg": 176.5863473338523,
      "height_km": 1184.7706348496952,
      "semi_major_axis_km": 7559.9132725676345,
      "eccentricity": 0.0001552,
      "inclination_deg": 87.9142,
      "raan_deg": 289.6931,
      "arg_perigee_deg": 94.5851,
      "mean_anomaly_deg": 265.546,
      "mean_motion_rev_day": 13.20771053
    },
    {
      "epoch": "2026-04-02T18:30:01.029600Z",
      "apogee_km": 1182.9517370077274,
      "perigee_km": 1180.5960687703882,
      "latitude_deg": -2.717849209119416e-05,
      "longitude_deg": -179.1227267425954,
      "height_km": 1184.7675021979098,
      "semi_major_axis_km": 7559.910902889058,
      "eccentricity": 0.0001558,
      "inclination_deg": 87.9143,
      "raan_deg": 289.4963,
      "arg_perigee_deg": 94.5301,
      "mean_anomaly_deg": 265.601,
      "mean_motion_rev_day": 13.20771674
    },
    {
      "epoch": "2026-04-02T22:08:11.775264Z",
      "apogee_km": 1182.9902576334362,
      "perigee_km": 1180.5565712728148,
      "latitude_deg": 2.8353409630233333e-05,
      "longitude_deg": 126.15266349175945,
      "height_km": 1184.8024282054312,
      "semi_major_axis_km": 7559.910414453125,
      "eccentricity": 0.00016096,
      "inclination_deg": 87.9142,
      "raan_deg": 289.4658,
      "arg_perigee_deg": 96.0631,
      "mean_anomaly_deg": 264.0686,
      "mean_motion_rev_day": 13.20771802
    },
    {
      "epoch": "2026-04-03T14:30:00.235296Z",
      "apogee_km": 1182.994088094637,
      "perigee_km": 1180.552237112117,
      "latitude_deg": -2.901234151337905e-05,
      "longitude_deg": -120.10747884704406,
      "height_km": 1184.8053957931504,
      "semi_major_axis_km": 7559.910162603377,
      "eccentricity": 0.0001615,
      "inclination_deg": 87.9141,
      "raan_deg": 289.3296,
      "arg_perigee_deg": 96.1947,
      "mean_anomaly_deg": 263.937,
      "mean_motion_rev_day": 13.20771868
    },
    {
      "epoch": "2026-04-04T12:19:04.905408Z",
      "apogee_km": 1183.0101660229639,
      "perigee_km": 1180.5373192190527,
      "latitude_deg": 7.334121017912741e-05,
      "longitude_deg": -88.45496639468556,
      "height_km": 1184.8278763106698,
      "semi_major_axis_km": 7559.9107426210085,
      "eccentricity": 0.00016355,
      "inclination_deg": 87.9141,
      "raan_deg": 289.1476,
      "arg_perigee_deg": 97.1404,
      "mean_anomaly_deg": 262.9916,
      "mean_motion_rev_day": 13.20771716
    },
    {
      "epoch": "2026-04-05T13:46:20.317728Z",
      "apogee_km": 1183.009645193758,
      "perigee_km": 1180.5380079481183,
      "latitude_deg": -3.636242522784127e-05,
      "longitude_deg": -111.52666004387787,
      "height_km": 1184.8178178752016,
      "semi_major_axis_km": 7559.910826570938,
      "eccentricity": 0.00016347,
      "inclination_deg": 87.9139,
      "raan_deg": 288.9355,
      "arg_perigee_deg": 96.6697,
      "mean_anomaly_deg": 263.4622,
      "mean_motion_rev_day": 13.20771694
    },
    {
      "epoch": "2026-04-05T19:13:36.482016Z",
      "apogee_km": 1183.006210666591,
      "perigee_km": 1180.5401679628367,
      "latitude_deg": -5.047867544905373e-06,
      "longitude_deg": 166.38668153610362,
      "height_km": 1184.8104331712657,
      "semi_major_axis_km": 7559.9101893147135,
      "eccentricity": 0.0001631,
      "inclination_deg": 87.9138,
      "raan_deg": 288.8902,
      "arg_perigee_deg": 96.3694,
      "mean_anomaly_deg": 263.7625,
      "mean_motion_rev_day": 13.20771861
    },
    {
      "epoch": "2026-04-05T22:51:47.268288Z",
      "apogee_km": 1183.004554960039,
      "perigee_km": 1180.5425944822746,
      "latitude_deg": -6.832846045887737e-05,
      "longitude_deg": 111.662097424538,
      "height_km": 1184.8143296190271,
      "semi_major_axis_km": 7559.910574721156,
      "eccentricity": 0.00016283,
      "inclination_deg": 87.9139,
      "raan_deg": 288.8599,
      "arg_perigee_deg": 96.5437,
      "mean_anomaly_deg": 263.5881,
      "mean_motion_rev_day": 13.2077176
    },
    {
      "epoch": "2026-04-07T11:13:34.957344Z",
      "apogee_km": 1183.0029822324022,
      "perigee_km": 1180.5425340025258,
      "latitude_deg": -4.86071449710184e-05,
      "longitude_deg": -75.58249568594036,
      "height_km": 1184.8181562128834,
      "semi_major_axis_km": 7559.909758117464,
      "eccentricity": 0.00016273,
      "inclination_deg": 87.9139,
      "raan_deg": 288.5574,
      "arg_perigee_deg": 96.7654,
      "mean_anomaly_deg": 263.3664,
      "mean_motion_rev_day": 13.20771974
    },
    {
      "epoch": "2026-04-07T18:29:56.465952Z",
      "apogee_km": 1183.0073336812675,
      "perigee_km": 1180.536755405511,
      "latitude_deg": -2.2363033986521933e-05,
      "longitude_deg": 174.9686084123418,
      "height_km": 1184.8193571374502,
      "semi_major_axis_km": 7559.909044543389,
      "eccentricity": 0.0001634,
      "inclination_deg": 87.914,
      "raan_deg": 288.4968,
      "arg_perigee_deg": 96.8276,
      "mean_anomaly_deg": 263.3043,
      "mean_motion_rev_day": 13.20772161
    },
    {
      "epoch": "2026-04-08T14:29:55.701024Z",
      "apogee_km": 1183.0136491793028,
      "perigee_km": 1180.5326378684013,
      "latitude_deg": 8.76763701828072e-06,
      "longitude_deg": -126.01606788471123,
      "height_km": 1184.8262772054543,
      "semi_major_axis_km": 7559.910143523852,
      "eccentricity": 0.00016409,
      "inclination_deg": 87.9142,
      "raan_deg": 288.3303,
      "arg_perigee_deg": 97.0702,
      "mean_anomaly_deg": 263.0618,
      "mean_motion_rev_day": 13.20771873
    },
    {
      "epoch": "2026-04-09T12:19:00.262272Z",
      "apogee_km": 1183.0304796585906,
      "perigee_km": 1180.5115183133285,
      "latitude_deg": 3.0711152778326846e-05,
      "longitude_deg": -94.3628057019702,
      "height_km": 1184.8303418413468,
      "semi_major_axis_km": 7559.907998985959,
      "eccentricity": 0.0001666,
      "inclination_deg": 87.9142,
      "raan_deg": 288.1486,
      "arg_perigee_deg": 97.2498,
      "mean_anomaly_deg": 262.8825,
      "mean_motion_rev_day": 13.20772435
    },
    {
      "epoch": "2026-04-10T11:57:10.308672Z",
      "apogee_km": 1183.0373853604724,
      "perigee_km": 1180.510863062761,
      "latitude_deg": -1.2017132803788635e-05,
      "longitude_deg": -90.07227097466965,
      "height_km": 1184.8412796810933,
      "semi_major_axis_km": 7559.911124211616,
      "eccentricity": 0.0001671,
      "inclination_deg": 87.9142,
      "raan_deg": 287.9517,
      "arg_perigee_deg": 97.5853,
      "mean_anomaly_deg": 262.547,
      "mean_motion_rev_day": 13.20771616
    }
  ]
}